#aV2013  7 21  0  0  0.00000000     288 DD+AD WGS84 FIT  NGA
## 1750      0.00000000   300.00000000 56494 0.0000000000000
+   31     1  2  3  4  5  6  7  8  9 10 11 12 13 14 15 16 17
+         18 19 20 21 22 23 24 25 26 27 28 29 31 32  0  0  0
+          0  0  0  0  0  0  0  0  0  0  0  0  0  0  0  0  0
+          0  0  0  0  0  0  0  0  0  0  0  0  0  0  0  0  0
+          0  0  0  0  0  0  0  0  0  0  0  0  0  0  0  0  0
++         2  2  2  2  2  2  2  2  2  2  2  2  2  2  2  2  2
++         2  2  2  2  2  2  2  2  2  2  2  2  2  2  2  0  0
++         0  0  0  0  0  0  0  0  0  0  0  0  0  0  0  0  0
++         0  0  0  0  0  0  0  0  0  0  0  0  0  0  0  0  0
++         0  0  0  0  0  0  0  0  0  0  0  0  0  0  0  0  0
%c cc cc ccc ccc cccc cccc cccc cccc ccccc ccccc ccccc ccccc
%c cc cc ccc ccc cccc cccc cccc cccc ccccc ccccc ccccc ccccc
%f  0.0000000  0.000000000  0.00000000000  0.000000000000000
%f  0.0000000  0.000000000  0.00000000000  0.000000000000000
%i    0    0    0    0      0      0      0      0         0
%i    0    0    0    0      0      0      0      0         0
/*      NGA, ST. LOUIS,MO.                                  
/*   EPHEMERIS COMPUTED FROM  1 DAYS OF DATA
/*   EPOCHA SMOOTHER  
/* CCCCCCCCCCCCCCCCCCCCCCCCCCCCCCCCCCCCCCCCCCCCCCCCCCCCCCCCC
*  2013  7 21 20 55  0.00000000                                                 
P  1  13805.411306  -8730.025964  20905.676436     53.062663                    
V  1   3542.213612  26388.852124   8767.485142      0.050235                    
P  2 -13462.887327 -17109.122383 -15328.728710    442.827326                    
V  2   -291.236911 -19837.408052  21575.088020      0.017983                    
P  3  24992.935637   9078.015670  -2620.081241    235.662739                    
V  3  -3513.514133   2524.394762 -30818.456046      0.049281                    
P  4  -7744.362930 -24377.125122  -6886.526743    278.555050                    
V  4   2595.130171  -8806.248330  29749.074743      0.103408                    
P  5 -17532.333150  -4546.487583 -19498.140392   -398.848161                    
V  5  19189.054327 -15613.320960 -13486.279029     -0.004133                    
P  6  22008.939238  13525.499579  -6900.771443    131.637565                    
V  6  -9259.309145   -306.015452 -29450.196438     -0.181180                    
P  7   6588.232465 -22329.453390 -12440.090238    238.629375                    
V  7   3503.825077  15726.615687 -26577.769786      0.042115                    
P  8   1424.767173 -26113.500592  -1846.905180      7.510301                    
V  8   2113.051379   2538.009585 -32859.607366      0.002040                    
P  9  -2820.294813 -26336.508459     12.639810    256.064562                    
V  9   2102.631929   -913.660617 -32338.350770      0.026190                    
P 10  -2199.752506 -16784.181658 -20672.394159    -87.759480                    
V 10  21752.976195 -13822.271897   9455.213585     -0.012730                    
P 11  17096.692248  -1029.701447  19889.989393   -402.936031                    
V 11   9476.238435  24818.558744  -6445.948745     -0.035456                    
P 12 -23364.702394   8895.284902   8605.828779    146.077564                    
V 12   7971.696119  -7894.396348  29841.411334      0.021265                    
P 13  11315.727903 -10347.556765 -21838.617249     97.726908                    
V 13  23551.688780  13863.302099   5534.301786     -0.037043                    
P 14   8892.715955  18213.116172  17454.724392    219.066413                    
V 14 -19726.677690  -9056.434355  19584.186357     -0.004764                    
P 15 -24110.265722   -939.135292  11364.964513   -128.641644                    
V 15 -12294.779831  -8024.621141 -26418.267435     -0.016957                    
P 16  16894.719740   4878.458387 -20041.012469   -249.871285                    
V 16 -20762.912535  14321.637961 -13710.233930      0.005410                    
P 17  -7798.018949 -17955.688449  18279.166897     -3.284673                    
V 17  20873.944932   8916.063480  17649.264417     -0.037907                    
P 18 -12583.701378  20179.794739  11876.538129    264.797629                    
V 18 -13846.276713   5877.647782 -25915.235137      0.018740                    
P 19  24417.412216   7125.087456   8272.836470   -390.566418                    
V 19   8091.089468   7082.297478 -29190.321170     -0.029212                    
P 20  21924.102312 -14479.703573   3442.457767    110.772204                    
V 20  -1118.530364   5934.247764  30629.437388      0.023402                    
P 21  -3789.352939  24384.963588  -8527.423029   -309.547053                    
V 21  -5187.923438 -11340.198024 -28742.286277     -0.019533                    
P 22  -1340.572194  18664.693221  18998.389158    176.645815                    
V 22 -20424.553612  12521.311724 -14038.116308      0.017527                    
P 23  19967.478760  -4147.222481 -17147.458985     64.813441                    
V 23  19114.232843  10585.072987  19204.569033     -0.035361                    
P 24 -14750.334729   4510.263869  21607.759617    -10.365311                    
V 24  -3421.716460 -27262.938910   3394.383961     -0.006484                    
P 25 -19263.465169  17724.617273  -4238.471058    125.314434                    
V 25  -5737.284796   1166.566034  31487.349759      0.050844                    
P 26 -22769.185884 -13987.898806  -1488.053658    106.948925                    
V 26   1913.612648  -1168.267616 -31865.732725      0.168526                    
P 27  23276.172362  12482.488894  -2857.219515    -13.746293                    
V 27  -4437.587271   1085.202836 -31476.184126     -0.048956                    
P 28   5985.122795 -18519.158058  18575.373105    277.646872                    
V 28  19468.636535 -11157.497542 -18137.553178      0.031598                    
P 29 -12900.093989   9724.009532 -21028.569896    455.511737                    
V 29 -23572.692688 -12764.058164   8582.981844      0.032882                    
P 31   6927.436353  24325.933519  -7447.750083    321.341665                    
V 31  -1554.059790   9891.257495  30451.876289      0.010662                    
P 32  23427.873897  -4796.846280  11092.224460   -557.654087                    
V 32 -10490.624181   9945.128602  27275.925947      0.009792                    
EOF
